{
  "type": "FeatureCollection",
  "features": [
    {
      "type": "Feature",
      "properties": {
        "norad_id": 43207,
        "name": "BEIDOU-3 M4 (C22)",
        "group": "beidou",
        "lat": -20.145850373926418,
        "lon": 55.365511890308206,
        "alt_km": 21521.48300307886,
        "timestamp": "2025-12-09T14:52:26.427039+00:00",
        "meta_object_name": "BEIDOU-3 M4 (C22)",
        "meta_object_id": "2018-018A",
        "meta_epoch": "2025-12-06T10:25:28.940736",
        "meta_mean_motion": 1.86230708,
        "meta_eccentricity": 0.00041784,
        "meta_inclination": 56.4806,
        "meta_ra_of_asc_node": 69.5126,
        "meta_arg_of_pericenter": 11.9666,
        "meta_mean_anomaly": 348.0575,
        "meta_ephemeris_type": 0,
        "meta_classification_type": "U",
        "meta_norad_cat_id": 43207,
        "meta_element_set_no": 999,
        "meta_rev_at_epoch": 5315,
        "meta_bstar": 0,
        "meta_mean_motion_dot": -4.5e-07,
        "meta_mean_motion_ddot": 0,
        "tle_line1": "1 43207U 18018A   25340.43436274 -.00000045  00000+0  00000+0 0  9999",
        "tle_line2": "2 43207  56.4806  69.5126 0004178  11.9666 348.0575  1.86230708 53156"
      },
      "geometry": {
        "type": "Point",
        "coordinates": [
          55.365511890308206,
          -20.145850373926418
        ]
      }
    },
    {
      "type": "Feature",
      "properties": {
        "norad_id": 43208,
        "name": "BEIDOU-3 M3 (C21)",
        "group": "beidou",
        "lat": -51.14525380646882,
        "lon": 14.18382006376213,
        "alt_km": 21517.55506482299,
        "timestamp": "2025-12-09T14:52:26.427050+00:00",
        "meta_object_name": "BEIDOU-3 M3 (C21)",
        "meta_object_id": "2018-018B",
        "meta_epoch": "2025-12-09T04:27:22.130784",
        "meta_mean_motion": 1.86231192,
        "meta_eccentricity": 0.00064679,
        "meta_inclination": 56.4827,
        "meta_ra_of_asc_node": 69.4258,
        "meta_arg_of_pericenter": 317.3873,
        "meta_mean_anomaly": 42.5846,
        "meta_ephemeris_type": 0,
        "meta_classification_type": "U",
        "meta_norad_cat_id": 43208,
        "meta_element_set_no": 999,
        "meta_rev_at_epoch": 5320,
        "meta_bstar": 0,
        "meta_mean_motion_dot": -4.7e-07,
        "meta_mean_motion_ddot": 0,
        "tle_line1": "1 43208U 18018B   25343.18567281 -.00000047  00000+0  00000+0 0  9990",
        "tle_line2": "2 43208  56.4827  69.4258 0006467 317.3873  42.5846  1.86231192 53202"
      },
      "geometry": {
        "type": "Point",
        "coordinates": [
          14.18382006376213,
          -51.14525380646882
        ]
      }
    },
    {
      "type": "Feature",
      "properties": {
        "norad_id": 43245,
        "name": "BEIDOU-3 M9 (C29)",
        "group": "beidou",
        "lat": 26.93698873644897,
        "lon": 105.19963590703328,
        "alt_km": 21527.954193915986,
        "timestamp": "2025-12-09T14:52:26.427062+00:00",
        "meta_object_name": "BEIDOU-3 M9 (C29)",
        "meta_object_id": "2018-029A",
        "meta_epoch": "2025-12-08T20:45:22.665024",
        "meta_mean_motion": 1.86227881,
        "meta_eccentricity": 0.00016693,
        "meta_inclination": 54.3693,
        "meta_ra_of_asc_node": 306.6022,
        "meta_arg_of_pericenter": 274.1611,
        "meta_mean_anomaly": 85.8087,
        "meta_ephemeris_type": 0,
        "meta_classification_type": "U",
        "meta_norad_cat_id": 43245,
        "meta_element_set_no": 999,
        "meta_rev_at_epoch": 5235,
        "meta_bstar": 0,
        "meta_mean_motion_dot": -7.4e-07,
        "meta_mean_motion_ddot": 0,
        "tle_line1": "1 43245U 18029A   25342.86484566 -.00000074  00000+0  00000+0 0  9991",
        "tle_line2": "2 43245  54.3693 306.6022 0001669 274.1611  85.8087  1.86227881 52357"
      },
      "geometry": {
        "type": "Point",
        "coordinates": [
          105.19963590703328,
          26.93698873644897
        ]
      }
    },
    {
      "type": "Feature",
      "properties": {
        "norad_id": 43246,
        "name": "BEIDOU-3 M10 (C30)",
        "group": "beidou",
        "lat": -7.754491031623557,
        "lon": 132.18622783602078,
        "alt_km": 21540.32405248392,
        "timestamp": "2025-12-09T14:52:26.427073+00:00",
        "meta_object_name": "BEIDOU-3 M10 (C30)",
        "meta_object_id": "2018-029B",
        "meta_epoch": "2025-12-08T19:12:10.130400",
        "meta_mean_motion": 1.86228761,
        "meta_eccentricity": 0.00039407,
        "meta_inclination": 54.3671,
        "meta_ra_of_asc_node": 306.6328,
        "meta_arg_of_pericenter": 358.8178,
        "meta_mean_anomaly": 1.1699,
        "meta_ephemeris_type": 0,
        "meta_classification_type": "U",
        "meta_norad_cat_id": 43246,
        "meta_element_set_no": 999,
        "meta_rev_at_epoch": 5233,
        "meta_bstar": 0,
        "meta_mean_motion_dot": -7.4e-07,
        "meta_mean_motion_ddot": 0,
        "tle_line1": "1 43246U 18029B   25342.80011725 -.00000074  00000+0  00000+0 0  9999",
        "tle_line2": "2 43246  54.3671 306.6328 0003940 358.8178   1.1699  1.86228761 52331"
      },
      "geometry": {
        "type": "Point",
        "coordinates": [
          132.18622783602078,
          -7.754491031623557
        ]
      }
    },
    {
      "type": "Feature",
      "properties": {
        "norad_id": 43539,
        "name": "BEIDOU-2 IGSO-7 (C16)",
        "group": "beidou",
        "lat": -49.693677867141,
        "lon": 39.951544751880704,
        "alt_km": 35415.49670930304,
        "timestamp": "2025-12-09T14:52:26.427085+00:00",
        "meta_object_name": "BEIDOU-2 IGSO-7 (C16)",
        "meta_object_id": "2018-057A",
        "meta_epoch": "2025-12-08T22:18:38.684160",
        "meta_mean_motion": 1.00258196,
        "meta_eccentricity": 0.0092592,
        "meta_inclination": 55.1737,
        "meta_ra_of_asc_node": 164.7043,
        "meta_arg_of_pericenter": 235.2335,
        "meta_mean_anomaly": 123.7803,
        "meta_ephemeris_type": 0,
        "meta_classification_type": "U",
        "meta_norad_cat_id": 43539,
        "meta_element_set_no": 999,
        "meta_rev_at_epoch": 2722,
        "meta_bstar": 0,
        "meta_mean_motion_dot": -7e-07,
        "meta_mean_motion_ddot": 0,
        "tle_line1": "1 43539U 18057A   25342.92961440 -.00000070  00000+0  00000+0 0  9992",
        "tle_line2": "2 43539  55.1737 164.7043 0092592 235.2335 123.7803  1.00258196 27228"
      },
      "geometry": {
        "type": "Point",
        "coordinates": [
          39.951544751880704,
          -49.693677867141
        ]
      }
    },
    {
      "type": "Feature",
      "properties": {
        "norad_id": 43581,
        "name": "BEIDOU-3 M5 (C23)",
        "group": "beidou",
        "lat": 30.55742740416549,
        "lon": -145.9082963526707,
        "alt_km": 21520.402383733643,
        "timestamp": "2025-12-09T14:52:26.427097+00:00",
        "meta_object_name": "BEIDOU-3 M5 (C23)",
        "meta_object_id": "2018-062A",
        "meta_epoch": "2025-12-07T09:56:06.099936",
        "meta_mean_motion": 1.86228656,
        "meta_eccentricity": 0.00021227,
        "meta_inclination": 54.0892,
        "meta_ra_of_asc_node": 188.8244,
        "meta_arg_of_pericenter": 353.0314,
        "meta_mean_anomaly": 7.0363,
        "meta_ephemeris_type": 0,
        "meta_classification_type": "U",
        "meta_norad_cat_id": 43581,
        "meta_element_set_no": 999,
        "meta_rev_at_epoch": 5006,
        "meta_bstar": 0,
        "meta_mean_motion_dot": 5.9e-07,
        "meta_mean_motion_ddot": 0,
        "tle_line1": "1 43581U 18062A   25341.41395949  .00000059  00000+0  00000+0 0  9999",
        "tle_line2": "2 43581  54.0892 188.8244 0002122 353.0314   7.0363  1.86228656 50066"
      },
      "geometry": {
        "type": "Point",
        "coordinates": [
          -145.9082963526707,
          30.55742740416549
        ]
      }
    },
    {
      "type": "Feature",
      "properties": {
        "norad_id": 43582,
        "name": "BEIDOU-3 M6 (C24)",
        "group": "beidou",
        "lat": 37.76097122963883,
        "lon": -25.41014464880449,
        "alt_km": 21521.45775568984,
        "timestamp": "2025-12-09T14:52:26.427108+00:00",
        "meta_object_name": "BEIDOU-3 M6 (C24)",
        "meta_object_id": "2018-062B",
        "meta_epoch": "2025-12-07T19:32:10.570272",
        "meta_mean_motion": 1.86229692,
        "meta_eccentricity": 0.00077761,
        "meta_inclination": 54.0886,
        "meta_ra_of_asc_node": 188.7999,
        "meta_arg_of_pericenter": 46.2812,
        "meta_mean_anomaly": 313.8511,
        "meta_ephemeris_type": 0,
        "meta_classification_type": "U",
        "meta_norad_cat_id": 43582,
        "meta_element_set_no": 999,
        "meta_rev_at_epoch": 5007,
        "meta_bstar": 0,
        "meta_mean_motion_dot": 5.5e-07,
        "meta_mean_motion_ddot": 0,
        "tle_line1": "1 43582U 18062B   25341.81401123  .00000055  00000+0  00000+0 0  9992",
        "tle_line2": "2 43582  54.0886 188.7999 0007776  46.2812 313.8511  1.86229692 50075"
      },
      "geometry": {
        "type": "Point",
        "coordinates": [
          -25.41014464880449,
          37.76097122963883
        ]
      }
    }
  ]
}